start=new Date('2022-04-18T00:00:00.000Z').valueOf();
sats=[{"CENTER_NAME":"EARTH","TLE_LINE2":"2 51867  53.2176 280.3548 0001222 104.1857 168.1455 15.59362538  3691","REF_FRAME":"TEME","MEAN_MOTION_DOT":"-0.00709984","COUNTRY_CODE":"US","PERIOD":"92.345","SEMIMAJOR_AXIS":"6767.638","REV_AT_EPOCH":"369","APOAPSIS":"390.330","NORAD_CAT_ID":"51867","TIME_SYSTEM":"UTC","LAUNCH_DATE":"2022-03-03","BSTAR":"-0.00964050000000","MEAN_MOTION":"15.59362538","OBJECT_NAME":"STARLINK-3590","RCS_SIZE":"LARGE","SITE":"AFETR","CLASSIFICATION_TYPE":"U","EPOCH":"2022-04-17T22:00:00.999936","TLE_LINE1":"1 51867U 22022R   22107.91667824 -.00709984  00000-0 -96405-2 0  9995","EPHEMERIS_TYPE":"0","OBJECT_TYPE":"PAYLOAD","ARG_OF_PERICENTER":"104.1857","RA_OF_ASC_NODE":"280.3548","OBJECT_ID":"2022-022R","MEAN_MOTION_DDOT":"0.0000000000000","ECCENTRICITY":"0.00012220","MEAN_ANOMALY":"168.1455","PERIAPSIS":"388.676","GP_ID":"201498312","FILE":"3405839","DECAY_DATE":null,"MEAN_ELEMENT_THEORY":"SGP4","INCLINATION":"53.2176","ELEMENT_SET_NO":"999"},{"TLE_LINE2":"2 51868  53.2176 280.3559 0001198  88.9524 173.6968 15.59106609  3691","CENTER_NAME":"EARTH","COUNTRY_CODE":"US","PERIOD":"92.361","REF_FRAME":"TEME","MEAN_MOTION_DOT":"-0.00709434","APOAPSIS":"391.054","NORAD_CAT_ID":"51868","TIME_SYSTEM":"UTC","LAUNCH_DATE":"2022-03-03","SEMIMAJOR_AXIS":"6768.378","REV_AT_EPOCH":"369","MEAN_MOTION":"15.59106609","BSTAR":"-0.00972720000000","SITE":"AFETR","CLASSIFICATION_TYPE":"U","OBJECT_NAME":"STARLINK-3578","RCS_SIZE":"LARGE","EPHEMERIS_TYPE":"0","OBJECT_TYPE":"PAYLOAD","ARG_OF_PERICENTER":"88.9524","RA_OF_ASC_NODE":"280.3559","TLE_LINE1":"1 51868U 22022S   22107.91667824 -.00709434  00000-0 -97272-2 0  9999","EPOCH":"2022-04-17T22:00:00.999936","MEAN_ANOMALY":"173.6968","PERIAPSIS":"389.433","OBJECT_ID":"2022-022S","MEAN_MOTION_DDOT":"0.0000000000000","ECCENTRICITY":"0.00011980","ELEMENT_SET_NO":"999","GP_ID":"201498494","DECAY_DATE":null,"FILE":"3405839","MEAN_ELEMENT_THEORY":"SGP4","INCLINATION":"53.2176"},{"MEAN_MOTION_DDOT":"0.0000000000000","ECCENTRICITY":"0.00012080","OBJECT_ID":"2022-022T","PERIAPSIS":"387.575","MEAN_ANOMALY":"182.1393","MEAN_ELEMENT_THEORY":"SGP4","INCLINATION":"53.2176","GP_ID":"201498403","DECAY_DATE":null,"FILE":"3405839","ELEMENT_SET_NO":"999","RCS_SIZE":"LARGE","OBJECT_NAME":"STARLINK-3588","CLASSIFICATION_TYPE":"U","SITE":"AFETR","TLE_LINE1":"1 51869U 22022T   22107.91667824 -.00710666  00000-0 -95096-2 0  9991","EPOCH":"2022-04-17T22:00:00.999936","OBJECT_TYPE":"PAYLOAD","RA_OF_ASC_NODE":"280.3522","ARG_OF_PERICENTER":"104.4269","EPHEMERIS_TYPE":"0","REV_AT_EPOCH":"369","SEMIMAJOR_AXIS":"6766.528","LAUNCH_DATE":"2022-03-03","TIME_SYSTEM":"UTC","NORAD_CAT_ID":"51869","APOAPSIS":"389.210","BSTAR":"-0.00950960000000","MEAN_MOTION":"15.59746354","CENTER_NAME":"EARTH","TLE_LINE2":"2 51869  53.2176 280.3522 0001208 104.4269 182.1393 15.59746354  3698","MEAN_MOTION_DOT":"-0.00710666","REF_FRAME":"TEME","PERIOD":"92.323","COUNTRY_CODE":"US"},{"REF_FRAME":"TEME","MEAN_MOTION_DOT":"-0.00710204","COUNTRY_CODE":"US","PERIOD":"92.338","CENTER_NAME":"EARTH","TLE_LINE2":"2 51870  53.2176 280.3539 0001216 103.2312 173.8834 15.59490502  3691","BSTAR":"-0.00959660000000","MEAN_MOTION":"15.59490502","SEMIMAJOR_AXIS":"6767.268","REV_AT_EPOCH":"369","APOAPSIS":"389.956","NORAD_CAT_ID":"51870","TIME_SYSTEM":"UTC","LAUNCH_DATE":"2022-03-03","EPOCH":"2022-04-17T22:00:00.999936","TLE_LINE1":"1 51870U 22022U   22107.91667824 -.00710204  00000-0 -95966-2 0  9997","EPHEMERIS_TYPE":"0","OBJECT_TYPE":"PAYLOAD","RA_OF_ASC_NODE":"280.3539","ARG_OF_PERICENTER":"103.2312","OBJECT_NAME":"STARLINK-3591","RCS_SIZE":"LARGE","SITE":"AFETR","CLASSIFICATION_TYPE":"U","GP_ID":"201498583","FILE":"3405839","DECAY_DATE":null,"MEAN_ELEMENT_THEORY":"SGP4","INCLINATION":"53.2176","ELEMENT_SET_NO":"999","OBJECT_ID":"2022-022U","MEAN_MOTION_DDOT":"0.0000000000000","ECCENTRICITY":"0.00012160","MEAN_ANOMALY":"173.8834","PERIAPSIS":"388.310"},{"SEMIMAJOR_AXIS":"6766.158","REV_AT_EPOCH":"369","NORAD_CAT_ID":"51871","APOAPSIS":"388.801","TIME_SYSTEM":"UTC","LAUNCH_DATE":"2022-03-03","BSTAR":"-0.00946650000000","MEAN_MOTION":"15.59874310","CENTER_NAME":"EARTH","TLE_LINE2":"2 51871  53.2176 280.3513 0001150  86.7038 204.5304 15.59874310  3698","REF_FRAME":"TEME","MEAN_MOTION_DOT":"-0.00710900","COUNTRY_CODE":"US","PERIOD":"92.315","OBJECT_ID":"2022-022V","ECCENTRICITY":"0.00011500","MEAN_MOTION_DDOT":"0.0000000000000","MEAN_ANOMALY":"204.5304","PERIAPSIS":"387.244","FILE":"3405839","DECAY_DATE":null,"GP_ID":"201498660","INCLINATION":"53.2176","MEAN_ELEMENT_THEORY":"SGP4","ELEMENT_SET_NO":"999","OBJECT_NAME":"STARLINK-3567","RCS_SIZE":"LARGE","SITE":"AFETR","CLASSIFICATION_TYPE":"U","EPOCH":"2022-04-17T22:00:00.999936","TLE_LINE1":"1 51871U 22022V   22107.91667824 -.00710900  00000-0 -94665-2 0  9996","EPHEMERIS_TYPE":"0","RA_OF_ASC_NODE":"280.3513","ARG_OF_PERICENTER":"86.7038","OBJECT_TYPE":"PAYLOAD"},{"TLE_LINE2":"2 51872  53.2176 280.3530 0001183  83.7198 198.1397 15.59618380  3691","CENTER_NAME":"EARTH","COUNTRY_CODE":"US","PERIOD":"92.330","REF_FRAME":"TEME","MEAN_MOTION_DOT":"-0.00710365","APOAPSIS":"389.563","NORAD_CAT_ID":"51872","LAUNCH_DATE":"2022-03-03","TIME_SYSTEM":"UTC","REV_AT_EPOCH":"369","SEMIMAJOR_AXIS":"6766.898","MEAN_MOTION":"15.59618380","BSTAR":"-0.00955210000000","SITE":"AFETR","CLASSIFICATION_TYPE":"U","OBJECT_NAME":"STARLINK-3554","RCS_SIZE":"LARGE","EPHEMERIS_TYPE":"0","ARG_OF_PERICENTER":"83.7198","RA_OF_ASC_NODE":"280.3530","OBJECT_TYPE":"PAYLOAD","EPOCH":"2022-04-17T22:00:00.999936","TLE_LINE1":"1 51872U 22022W   22107.91667824 -.00710365  00000-0 -95521-2 0  9994","MEAN_ANOMALY":"198.1397","PERIAPSIS":"387.962","OBJECT_ID":"2022-022W","ECCENTRICITY":"0.00011830","MEAN_MOTION_DDOT":"0.0000000000000","ELEMENT_SET_NO":"999","DECAY_DATE":null,"FILE":"3405839","GP_ID":"201498840","INCLINATION":"53.2176","MEAN_ELEMENT_THEORY":"SGP4"},{"EPOCH":"2022-04-17T22:00:00.999936","TLE_LINE1":"1 51873U 22022X   22107.91667824 -.00711469  00000-0 -93358-2 0  9997","ARG_OF_PERICENTER":"94.8375","RA_OF_ASC_NODE":"280.3479","OBJECT_TYPE":"PAYLOAD","EPHEMERIS_TYPE":"0","RCS_SIZE":"LARGE","OBJECT_NAME":"STARLINK-3582","CLASSIFICATION_TYPE":"U","SITE":"AFETR","INCLINATION":"53.2176","MEAN_ELEMENT_THEORY":"SGP4","FILE":"3405839","DECAY_DATE":null,"GP_ID":"201498750","ELEMENT_SET_NO":"999","ECCENTRICITY":"0.00011300","MEAN_MOTION_DDOT":"0.0000000000000","OBJECT_ID":"2022-022X","PERIAPSIS":"386.148","MEAN_ANOMALY":"210.1709","MEAN_MOTION_DOT":"-0.00711469","REF_FRAME":"TEME","PERIOD":"92.292","COUNTRY_CODE":"US","CENTER_NAME":"EARTH","TLE_LINE2":"2 51873  53.2176 280.3479 0001130  94.8375 210.1709 15.60258092  3690","BSTAR":"-0.00933580000000","MEAN_MOTION":"15.60258092","REV_AT_EPOCH":"369","SEMIMAJOR_AXIS":"6765.048","TIME_SYSTEM":"UTC","LAUNCH_DATE":"2022-03-03","NORAD_CAT_ID":"51873","APOAPSIS":"387.677"},{"MEAN_MOTION":"15.60002209","BSTAR":"-0.00942230000000","NORAD_CAT_ID":"51874","APOAPSIS":"388.427","LAUNCH_DATE":"2022-03-03","TIME_SYSTEM":"UTC","REV_AT_EPOCH":"369","SEMIMAJOR_AXIS":"6765.788","COUNTRY_CODE":"US","PERIOD":"92.308","REF_FRAME":"TEME","MEAN_MOTION_DOT":"-0.00711056","TLE_LINE2":"2 51874  53.2176 280.3501 0001145  91.0459 204.8182 15.60002209  3697","CENTER_NAME":"EARTH","ELEMENT_SET_NO":"999","GP_ID":"201498928","FILE":"3405839","DECAY_DATE":null,"MEAN_ELEMENT_THEORY":"SGP4","INCLINATION":"53.2176","MEAN_ANOMALY":"204.8182","PERIAPSIS":"386.878","OBJECT_ID":"2022-022Y","MEAN_MOTION_DDOT":"0.0000000000000","ECCENTRICITY":"0.00011450","EPHEMERIS_TYPE":"0","OBJECT_TYPE":"PAYLOAD","RA_OF_ASC_NODE":"280.3501","ARG_OF_PERICENTER":"91.0459","TLE_LINE1":"1 51874U 22022Y   22107.91667824 -.00711056  00000-0 -94223-2 0  9992","EPOCH":"2022-04-17T22:00:00.999936","SITE":"AFETR","CLASSIFICATION_TYPE":"U","OBJECT_NAME":"STARLINK-3574","RCS_SIZE":"LARGE"},{"REF_FRAME":"TEME","MEAN_MOTION_DOT":"-0.00711785","COUNTRY_CODE":"US","PERIOD":"92.279","CENTER_NAME":"EARTH","TLE_LINE2":"2 51875  53.2176 280.3453 0001130  80.7395 232.2328 15.60479518  3690","BSTAR":"-0.00926080000000","MEAN_MOTION":"15.60479518","REV_AT_EPOCH":"369","SEMIMAJOR_AXIS":"6764.408","NORAD_CAT_ID":"51875","APOAPSIS":"387.037","LAUNCH_DATE":"2022-03-03","TIME_SYSTEM":"UTC","EPOCH":"2022-04-17T22:00:00.999936","TLE_LINE1":"1 51875U 22022Z   22107.91667824 -.00711785  00000-0 -92608-2 0  9997","EPHEMERIS_TYPE":"0","ARG_OF_PERICENTER":"80.7395","RA_OF_ASC_NODE":"280.3453","OBJECT_TYPE":"PAYLOAD","OBJECT_NAME":"STARLINK-3585","RCS_SIZE":"LARGE","SITE":"AFETR","CLASSIFICATION_TYPE":"U","FILE":"3405839","DECAY_DATE":null,"GP_ID":"201498313","INCLINATION":"53.2176","MEAN_ELEMENT_THEORY":"SGP4","ELEMENT_SET_NO":"999","OBJECT_ID":"2022-022Z","ECCENTRICITY":"0.00011300","MEAN_MOTION_DDOT":"0.0000000000000","MEAN_ANOMALY":"232.2328","PERIAPSIS":"385.509"},{"MEAN_MOTION":"15.60130149","BSTAR":"-0.00937940000000","APOAPSIS":"388.059","NORAD_CAT_ID":"51876","LAUNCH_DATE":"2022-03-03","TIME_SYSTEM":"UTC","SEMIMAJOR_AXIS":"6765.418","REV_AT_EPOCH":"369","COUNTRY_CODE":"US","PERIOD":"92.300","REF_FRAME":"TEME","MEAN_MOTION_DOT":"-0.00711294","TLE_LINE2":"2 51876  53.2176 280.3489 0001148  90.6515 209.8039 15.60130149  3696","CENTER_NAME":"EARTH","ELEMENT_SET_NO":"999","GP_ID":"201498495","FILE":"3405839","DECAY_DATE":null,"MEAN_ELEMENT_THEORY":"SGP4","INCLINATION":"53.2176","MEAN_ANOMALY":"209.8039","PERIAPSIS":"386.506","OBJECT_ID":"2022-022AA","MEAN_MOTION_DDOT":"0.0000000000000","ECCENTRICITY":"0.00011480","EPHEMERIS_TYPE":"0","OBJECT_TYPE":"PAYLOAD","ARG_OF_PERICENTER":"90.6515","RA_OF_ASC_NODE":"280.3489","TLE_LINE1":"1 51876U 22022AA  22107.91667824 -.00711294  00000-0 -93794-2 0  9990","EPOCH":"2022-04-17T22:00:00.999936","SITE":"AFETR","CLASSIFICATION_TYPE":"U","OBJECT_NAME":"STARLINK-3583","RCS_SIZE":"LARGE"}];
